NORAD_CAT_ID,OBJECT_NAME,OBJECT_TYPE,EPOCH,MEAN_MOTION,ECCENTRICITY,INCLINATION,RA_OF_ASC_NODE,ARG_OF_PERICENTER,MEAN_ANOMALY,BSTAR,MEAN_MOTION_DOT,MEAN_MOTION_DDOT,TLE_LINE0,TLE_LINE1,TLE_LINE2,SEMIMAJOR_AXIS,PERIOD,APOGEE,PERIGEE,DECAYED
56791.0,STARLINK-5977,PAYLOAD,2024-02-25 09:21:57,14.98333638,0.0002834,69.9992,58.481,268.5861,91.4974,2.2515e-05,1.76e-06,0.0,0 STARLINK-5977,1 56791U 23078AA  24056.39024600  .00000176  00000-0  22515-4 0  9992,2 56791  69.9992  58.4810 0002834 268.5861  91.4974 14.98333638 41347,6950.182,96.107,574.016,570.077,0.0
56791.0,STARLINK-5977,PAYLOAD,2024-02-26 09:23:58,14.98329428,0.0002761,69.9996,55.956,266.7447,93.3396,-5.837e-06,-1.63e-06,0.0,0 STARLINK-5977,1 56791U 23078AA  24057.39164857 -.00000163  00000-0 -58370-5 0  9999,2 56791  69.9996  55.9560 0002761 266.7447  93.3396 14.98329428 41750,6950.195,96.107,573.979,570.141,0.0
56791.0,STARLINK-5977,PAYLOAD,2024-02-27 09:25:59,14.98328511,0.0002731,69.9999,53.4305,264.4493,95.6355,-4.6418e-05,-6.47e-06,0.0,0 STARLINK-5977,1 56791U 23078AA  24058.39305024 -.00000647  00000-0 -46418-4 0  9999,2 56791  69.9999  53.4305 0002731 264.4493  95.6355 14.98328511 41905,6950.197,96.107,573.961,570.164,0.0
56791.0,STARLINK-5977,PAYLOAD,2024-02-27 17:26:39,14.98329029,0.0002745,69.9999,52.5888,266.9428,93.1417,-8.9672e-06,-2e-06,0.0,0 STARLINK-5977,1 56791U 23078AA  24058.72684922 -.00000200  00000-0 -89672-5 0  9998,2 56791  69.9999  52.5888 0002745 266.9428  93.1417 14.98329029 41694,6950.196,96.107,573.969,570.153,0.0
56791.0,STARLINK-5977,PAYLOAD,2024-02-28 09:28:00,14.9832646,0.0002942,69.9996,50.9053,269.5648,90.5174,0.00014392,1.624e-05,0.0,0 STARLINK-5977,1 56791U 23078AA  24059.39444636  .00001624  00000-0  14392-3 0  9992,2 56791  69.9996  50.9053 0002942 269.5648  90.5174 14.98326460 42057,6950.204,96.107,574.114,570.024,0.0
56791.0,STARLINK-5977,PAYLOAD,2024-02-29 09:30:01,14.9832988,0.0002918,69.9996,48.3805,270.7944,89.2881,3.0447e-05,2.7e-06,0.0,0 STARLINK-5977,1 56791U 23078AA  24060.39584690  .00000270  00000-0  30447-4 0  9995,2 56791  69.9996  48.3805 0002918 270.7944  89.2881 14.98329880 42205,6950.193,96.107,574.086,570.03,0.0
56791.0,STARLINK-5977,PAYLOAD,2024-02-29 22:19:05,14.98329988,0.0002861,69.9997,47.034,270.4253,89.6578,-4.4419e-05,-6.23e-06,0.0,0 STARLINK-5977,1 56791U 23078AA  24060.92992912 -.00000623  00000-0 -44419-4 0  9992,2 56791  69.9997  47.0340 0002861 270.4253  89.6578 14.98329988 42029,6950.193,96.107,574.046,570.069,0.0
56791.0,STARLINK-5977,PAYLOAD,2024-03-01 09:32:02,14.98331736,0.000277,70.0,45.8566,266.578,93.5062,-9.4535e-06,-2.06e-06,0.0,0 STARLINK-5977,1 56791U 23078AA  24061.39724654 -.00000206  00000-0 -94535-5 0  9992,2 56791  70.0000  45.8566 0002770 266.5780  93.5062 14.98331736 42355,6950.188,96.107,573.978,570.127,0.0
56791.0,STARLINK-5977,PAYLOAD,2024-03-01 15:56:34,14.98331597,0.0002769,70.0001,45.1832,266.8433,93.2409,7.6017e-06,-2e-08,0.0,0 STARLINK-5977,1 56791U 23078AA  24061.66428583 -.00000002  00000-0  76017-5 0  9992,2 56791  70.0001  45.1832 0002769 266.8433  93.2409 14.98331597 42134,6950.188,96.107,573.977,570.128,0.0
56791.0,STARLINK-5977,PAYLOAD,2024-03-02 07:57:54,14.98334866,0.000276,69.9997,43.4988,267.1821,92.9022,6.7136e-05,7.08e-06,0.0,0 STARLINK-5977,1 56791U 23078AA  24062.33188048  .00000708  00000-0  67136-4 0  9999,2 56791  69.9997  43.4988 0002760 267.1821  92.9022 14.98334866 42234,6950.178,96.107,573.961,570.125,0.0
56791.0,STARLINK-5977,PAYLOAD,2024-03-03 04:47:40,14.98325109,0.0002903,69.9994,41.3099,263.3312,96.7517,-5.0811e-05,-6.99e-06,0.0,0 STARLINK-5977,1 56791U 23078AA  24063.19976943 -.00000699  00000-0 -50811-4 0  9996,2 56791  69.9994  41.3099 0002903 263.3312  96.7517 14.98325109 42627,6950.208,96.107,574.091,570.055,0.0
56791.0,STARLINK-5977,PAYLOAD,2024-03-03 07:59:56,14.98326573,0.0002831,69.9999,40.9739,262.8809,97.2028,-2.3156e-05,-3.69e-06,0.0,0 STARLINK-5977,1 56791U 23078AA  24063.33328806 -.00000369  00000-0 -23156-4 0  9997,2 56791  69.9999  40.9739 0002831 262.8809  97.2028 14.98326573 42385,6950.203,96.107,574.036,570.101,0.0
56791.0,STARLINK-5977,PAYLOAD,2024-03-04 03:13:32,14.98332969,0.0002934,70.0001,38.9536,270.2599,89.8224,8.8786e-06,1.3e-07,0.0,0 STARLINK-5977,1 56791U 23078AA  24064.13440255  .00000013  00000-0  88786-5 0  9994,2 56791  70.0001  38.9536 0002934 270.2599  89.8224 14.98332969 42760,6950.184,96.107,574.088,570.01,0.0
56791.0,STARLINK-5977,PAYLOAD,2024-03-04 08:01:55,14.9834046,0.0002654,70.0007,38.4506,255.9977,104.0887,4.6847e-05,4.66e-06,0.0,0 STARLINK-5977,1 56791U 23078AA  24064.33467572  .00000466  00000-0  46847-4 0  9990,2 56791  70.0007  38.4506 0002654 255.9977 104.0887 14.98340460 42790,6950.161,96.106,573.87,570.181,0.0
56791.0,STARLINK-5977,PAYLOAD,2024-03-04 16:02:37,14.98323752,0.000253,70.0015,37.6062,285.5556,74.5323,9.3488e-05,1.023e-05,0.0,0 STARLINK-5977,1 56791U 23078AA  24064.66848640  .00001023  00000-0  93488-4 0  9998,2 56791  70.0015  37.6062 0002530 285.5556  74.5323 14.98323752 42849,6950.212,96.107,573.836,570.319,0.0
56791.0,STARLINK-5977,PAYLOAD,2024-03-04 22:27:09,14.98310212,0.000283,70.003,36.9337,280.4999,79.5841,0.00030115,3.5e-05,0.0,0 STARLINK-5977,1 56791U 23078AA  24064.93552544  .00003500  00000-0  30115-3 0  9992,2 56791  70.0030  36.9337 0002830 280.4999  79.5841 14.98310212 42624,6950.254,96.108,574.086,570.152,0.0
56791.0,STARLINK-5977,PAYLOAD,2024-03-05 03:15:32,14.98337298,0.0002557,70.0011,36.4283,258.4178,101.6694,0.00022714,2.619e-05,0.0,0 STARLINK-5977,1 56791U 23078AA  24065.13579158  .00002619  00000-0  22714-3 0  9991,2 56791  70.0011  36.4283 0002557 258.4178 101.6694 14.98337298 42916,6950.17,96.107,573.812,570.258,0.0
56791.0,STARLINK-5977,PAYLOAD,2024-03-05 08:03:56,14.98344752,0.0002866,70.0007,35.9242,266.0202,94.0629,0.00023202,2.678e-05,0.0,0 STARLINK-5977,1 56791U 23078AA  24065.33606524  .00002678  00000-0  23202-3 0  9999,2 56791  70.0007  35.9242 0002866 266.0202  94.0629 14.98344752 42686,6950.147,96.106,574.004,570.02,0.0
56791.0,STARLINK-5977,PAYLOAD,2024-03-06 04:53:42,14.98325359,0.0002743,70.0008,33.7367,263.4299,96.6548,-0.00018002,-2.24e-05,0.0,0 STARLINK-5977,1 56791U 23078AA  24066.20396652 -.00002240  00000-0 -18002-3 0  9993,2 56791  70.0008  33.7367 0002743 263.4299  96.6548 14.98325359 43076,6950.207,96.107,573.979,570.166,0.0
56791.0,STARLINK-5977,PAYLOAD,2024-03-06 08:05:58,14.98324973,0.0002629,70.0012,33.4005,260.175,99.9112,-0.00016809,-2.098e-05,0.0,0 STARLINK-5977,1 56791U 23078AA  24066.33748668 -.00002098  00000-0 -16809-3 0  9999,2 56791  70.0012  33.4005 0002629 260.1750  99.9112 14.98324973 42833,6950.208,96.107,573.901,570.246,0.0
56791.0,STARLINK-5977,PAYLOAD,2024-03-07 14:32:31,14.98336696,0.0002876,70.0008,30.2015,269.9427,90.1403,-0.00019279,-2.393e-05,0.0,0 STARLINK-5977,1 56791U 23078AA  24067.60592023 -.00002393  00000-0 -19279-3 0  9994,2 56791  70.0008  30.2015 0002876 269.9427  90.1403 14.98336696 43029,6950.172,96.107,574.036,570.038,0.0
56791.0,STARLINK-5977,PAYLOAD,2024-03-08 01:45:28,14.98320566,0.0002689,70.0008,29.0233,266.4281,93.657,7.9365e-05,8.54e-06,0.0,0 STARLINK-5977,1 56791U 23078AA  24068.07324454  .00000854  00000-0  79365-4 0  9998,2 56791  70.0008  29.0233 0002689 266.4281  93.6570 14.98320566 43357,6950.222,96.108,573.956,570.218,0.0
56791.0,STARLINK-5977,PAYLOAD,2024-03-08 06:33:52,14.9832456,0.0002636,70.0009,28.5186,265.4698,94.616,0.00011978,1.336e-05,0.0,0 STARLINK-5977,1 56791U 23078AA  24068.27352181  .00001336  00000-0  11978-3 0  9999,2 56791  70.0009  28.5186 0002636 265.4698  94.6160 14.98324560 43121,6950.21,96.107,573.907,570.243,0.0
56791.0,STARLINK-5977,PAYLOAD,2024-03-08 14:34:31,14.9839873,0.0002898,70.0009,27.676,263.3721,96.7108,-0.0012464,-0.0001496,0.0,0 STARLINK-5977,1 56791U 23078AA  24068.60730732 -.00014960  00000-0 -12464-2 0  9997,2 56791  70.0009  27.6760 0002898 263.3721  96.7108 14.98398730 43432,6949.98,96.103,573.859,569.831,0.0
56791.0,STARLINK-5977,PAYLOAD,2024-03-08 20:59:05,14.98325572,0.0002576,70.0008,27.0027,269.5056,90.5808,1.1936e-05,4.9e-07,0.0,0 STARLINK-5977,1 56791U 23078AA  24068.87436660  .00000049  00000-0  11936-4 0  9995,2 56791  70.0008  27.0027 0002576 269.5056  90.5808 14.98325572 43212,6950.207,96.107,573.862,570.281,0.0
56791.0,STARLINK-5977,PAYLOAD,2024-03-09 03:23:37,14.9832676,0.0002602,70.0008,26.33,261.5905,98.4959,2.3921e-05,1.92e-06,0.0,0 STARLINK-5977,1 56791U 23078AA  24069.14140560  .00000192  00000-0  23921-4 0  9993,2 56791  70.0008  26.3300 0002602 261.5905  98.4959 14.98326760 43510,6950.203,96.107,573.876,570.259,0.0
56791.0,STARLINK-5977,PAYLOAD,2024-03-09 06:35:53,14.98327423,0.00026,70.0009,25.9934,261.5736,98.5128,3.1946e-05,2.88e-06,0.0,0 STARLINK-5977,1 56791U 23078AA  24069.27492531  .00000288  00000-0  31946-4 0  9997,2 56791  70.0009  25.9934 0002600 261.5736  98.5128 14.98327423 43278,6950.201,96.107,573.873,570.259,0.0
56791.0,STARLINK-5977,PAYLOAD,2024-03-09 14:36:33,14.98332421,0.000271,70.0006,25.1509,268.7388,91.3461,1.1566e-05,4.5e-07,0.0,0 STARLINK-5977,1 56791U 23078AA  24069.60872260  .00000045  00000-0  11566-4 0  9992,2 56791  70.0006  25.1509 0002710 268.7388  91.3461 14.98332421 43320,6950.185,96.107,573.934,570.167,0.0
56791.0,STARLINK-5977,PAYLOAD,2024-03-10 03:25:37,14.983356,0.0002696,70.0007,23.8043,264.9558,95.1293,5.5313e-05,5.67e-06,0.0,0 STARLINK-5977,1 56791U 23078AA  24070.14279844  .00000567  00000-0  55313-4 0  9999,2 56791  70.0007  23.8043 0002696 264.9558  95.1293 14.98335600 43663,6950.176,96.107,573.914,570.167,0.0
56791.0,STARLINK-5977,PAYLOAD,2024-03-10 14:38:34,14.98332936,0.000264,70.0017,22.6256,272.571,87.5147,-3.0489e-05,-4.57e-06,0.0,0 STARLINK-5977,1 56791U 23078AA  24070.61012134 -.00000457  00000-0 -30489-4 0  9995,2 56791  70.0017  22.6256 0002640 272.5710  87.5147 14.98332936 43472,6950.184,96.107,573.884,570.214,0.0
